[
  {
    "OBJECT_NAME": "GOES 19",
    "OBJECT_ID": "2024-119A",
    "EPOCH": "2025-04-16T14:05:38.704128",
    "MEAN_MOTION": 1.00272129,
    "ECCENTRICITY": 7.52e-5,
    "INCLINATION": 0.0529,
    "RA_OF_ASC_NODE": 61.1689,
    "ARG_OF_PERICENTER": 332.7222,
    "MEAN_ANOMALY": 307.3284,
    "EPHEMERIS_TYPE": 0,
    "CLASSIFICATION_TYPE": "U",
    "NORAD_CAT_ID": 60133,
    "ELEMENT_SET_NO": 999,
    "REV_AT_EPOCH": 268,
    "BSTAR": 0,
    "MEAN_MOTION_DOT": -2.38e-6,
    "MEAN_MOTION_DDOT": 0
  }
]
