GOES 19                 
1 60133U 24119A   25106.58725352 -.00000238  00000+0  00000+0 0  9993
2 60133   0.0529  61.1689 0000752 332.7222 307.3284  1.00272129  2684
